OBJECT_NAME,OBJECT_ID,EPOCH,MEAN_MOTION,ECCENTRICITY,INCLINATION,RA_OF_ASC_NODE,ARG_OF_PERICENTER,MEAN_ANOMALY,EPHEMERIS_TYPE,CLASSIFICATION_TYPE,NORAD_CAT_ID,ELEMENT_SET_NO,REV_AT_EPOCH,BSTAR,MEAN_MOTION_DOT,MEAN_MOTION_DDOT
ONEWEB-0578,2023-043X,2026-06-06T12:07:22.362816,13.21829349,.00023549,87.9258,246.0974,100.6960,259.4439,0,U,56067,999,15682,-.40778874E-3,-.155E-5,0
ONEWEB-0579,2023-043Y,2026-06-06T11:55:17.192928,13.21826547,.00017033,87.9269,246.0958,96.8551,263.2777,0,U,56068,999,15683,.15680089E-3,.78E-6,0
ONEWEB-0581,2023-043Z,2026-06-06T14:04:48.826272,13.16596170,.0002284,87.9100,230.8891,84.0304,276.1087,0,U,56069,999,15756,.11592E-3,.57E-6,0
ONEWEB-0609,2023-043AA,2026-06-06T14:37:33.218400,13.15548346,.0001925,87.9001,261.3194,102.5688,257.5657,0,U,56070,999,15504,-.15628E-3,-.46E-6,0
ONEWEB-0613,2023-043AB,2026-06-06T12:44:36.292704,13.15549545,.00016233,87.8995,261.3469,102.4228,257.7084,0,U,56071,999,15503,-.23944694E-3,-.77E-6,0
ONEWEB-0630,2023-043AC,2026-06-06T12:37:44.669280,13.15550462,.00017167,87.9006,261.3189,103.3851,256.7471,0,U,56072,999,15502,.17359576E-3,.78E-6,0
ONEWEB-0632,2023-043AD,2026-06-06T12:30:55.387296,13.15548335,.00019915,87.9003,261.3383,95.4496,264.6861,0,U,56073,999,15502,.33274577E-3,.138E-5,0
ONEWEB-0633,2023-043AE,2026-06-06T12:21:46.120032,13.15548732,.00016522,87.9009,261.3141,109.7083,250.4226,0,U,56074,999,15500,.16602046E-3,.75E-6,0
ONEWEB-0634,2023-043AF,2026-06-06T13:50:47.006880,13.15548220,.0002187,87.9000,261.3431,107.6976,252.4394,0,U,56075,999,15500,.39704E-3,.162E-5,0
ONEWEB-0635,2023-043AG,2026-06-06T13:43:55.823232,13.15550470,.0002045,87.9008,261.3056,93.3677,266.7688,0,U,56076,999,15503,.42086E-3,.171E-5,0
ONEWEB-0636,2023-043AH,2026-06-06T13:32:32.044992,13.15549043,.0002039,87.9001,261.3140,94.7571,265.3792,0,U,56077,999,15501,.26468E-4,.23E-6,0
ONEWEB-0637,2023-043AJ,2026-06-06T13:23:24.502272,13.15548628,.0002237,87.9000,261.3324,99.3838,260.7545,0,U,56078,999,15503,-.20866E-3,-.66E-6,0
ONEWEB-0647,2023-043AK,2026-06-06T13:16:33.869856,13.15548839,.0001858,87.8997,261.3457,96.1868,263.9474,0,U,56079,999,15502,-.14217E-4,.7E-7,0
ONEWEB-0651,2023-043AL,2026-06-06T20:27:48.376800,13.15548623,.0002149,87.8998,261.2796,96.1904,263.9471,0,U,56080,999,15626,-.10577E-3,-.27E-6,0
ONEWEB-0718,2023-043AM,2026-06-06T13:02:51.074880,13.15550609,.0002151,87.8994,261.3213,114.2307,245.9048,0,U,56081,999,15503,-.3716E-3,-.127E-5,0
ONEWEB-0561,2023-068A,2026-06-06T14:12:04.319424,13.20778328,.0001904,87.9219,276.5554,85.2875,274.8475,0,U,56710,999,14810,-.32968E-2,-.1327E-4,0
ONEWEB-0668,2023-068B,2026-06-06T13:28:20.988192,13.16593461,.0002543,87.9100,230.8822,106.0125,254.1286,0,U,56711,999,15038,.27869E-3,.119E-5,0
ONEWEB-0676,2023-068C,2026-06-06T13:39:43.663104,13.16603994,.000264,87.9104,230.8865,92.4466,267.6968,0,U,56712,999,15030,-.37456E-2,-.1419E-4,0
ONEWEB-0677,2023-068D,2026-06-06T13:55:05.228832,13.20770348,.0002318,87.9211,276.5487,96.7886,263.3512,0,U,56713,999,14840,.28414E-3,.129E-5,0
ONEWEB-0678,2023-068E,2026-06-06T14:06:45.016128,13.15548188,.0001715,87.9006,261.3040,97.4367,262.6959,0,U,56714,999,14789,.5494E-3,.22E-5,0
ONEWEB-0679,2023-068F,2026-06-06T14:29:54.386016,13.16594309,.0002634,87.9105,230.8712,96.8582,263.2849,0,U,56715,999,15033,-.34381E-5,.12E-6,0
ONEWEB-0680,2023-068G,2026-06-06T11:57:41.720256,13.21827551,.00025663,87.9269,246.0966,104.5878,255.5541,0,U,56716,999,14968,.2657041E-3,.123E-5,0
ONEWEB-0681,2023-068H,2026-06-06T11:29:50.004672,13.21826935,.0002422,87.9259,246.1021,76.8358,283.3046,0,U,56717,999,14967,.11421283E-3,.6E-6,0
ONEWEB-0682,2023-068J,2026-06-06T12:51:27.883296,13.15548077,.0002479,87.9015,261.3153,104.8507,255.2898,0,U,56718,999,14805,-.12532E-3,-.34E-6,0
ONEWEB-0683,2023-068K,2026-06-06T13:25:41.530080,13.15548492,.000217,87.9008,261.3100,106.1264,254.0105,0,U,56719,999,14802,-.64029E-4,-.11E-6,0
ONEWEB-0684,2023-068L,2026-06-06T13:37:05.355840,13.15548299,.0000843,87.9007,261.2987,135.7961,224.3237,0,U,56720,999,14785,.19271E-3,.85E-6,0
ONEWEB-0686,2023-068M,2026-06-06T13:32:54.910752,13.16594309,.0002095,87.9091,230.9033,108.9179,251.2179,0,U,56721,999,15031,.35441E-3,.148E-5,0
ONEWEB-0694,2023-068N,2026-06-06T13:42:01.929024,13.16594582,.0002414,87.9112,230.8643,104.0489,256.0910,0,U,56722,999,15037,.86083E-4,.46E-6,0
ONEWEB-0696,2023-068P,2026-06-06T12:35:29.796288,13.15550509,.00014759,87.9003,261.3462,98.7249,261.4048,0,U,56723,999,14796,.17790878E-3,.8E-6,0
ONEWEB-0703,2023-068Q,2026-06-06T12:49:10.624800,13.15548452,.0001412,87.9003,261.3253,75.7548,284.3739,0,U,56724,999,14785,-.29627E-4,.2E-7,0
ONEWEB-0721,2023-068R,2026-06-06T13:08:33.302688,13.22468686,.0001946,86.6766,88.9117,78.9005,281.2346,0,U,56725,999,15653,.21296E-3,.103E-5,0
ONEWEB-0015,2024-188A,2026-06-06T20:33:48.244896,13.11415644,.0002301,87.8897,23.1493,78.8172,281.3214,0,U,61594,999,8310,.74395E-3,.276E-5,0
ONEWEB-0687,2024-188B,2026-06-06T14:23:34.753056,13.17651744,.000238,87.9137,7.9833,91.1590,268.9814,0,U,61595,999,8450,-.34892E-4,-.1E-7,0
ONEWEB-0688,2024-188C,2026-06-06T20:32:56.474880,13.17647387,.0002943,87.9136,7.9324,74.0211,286.1244,0,U,61596,999,8453,-.26532E-4,.3E-7,0
ONEWEB-0689,2024-188D,2026-06-06T14:03:09.095616,13.11418986,.0001944,87.8916,23.1602,93.8556,266.2794,0,U,61597,999,8306,-.11477E-2,-.394E-5,0
ONEWEB-0690,2024-188E,2026-06-06T14:17:48.484320,13.11420711,.0001527,87.8911,23.1710,62.0551,298.0731,0,U,61598,999,8324,-.22426E-4,.5E-7,0
ONEWEB-0691,2024-188F,2026-06-06T14:10:29.360640,13.11417842,.0002131,87.8923,23.0826,75.5921,284.5444,0,U,61599,999,8309,-.10507E-2,-.36E-5,0
ONEWEB-0692,2024-188G,2026-06-06T14:39:47.448576,13.11417206,.0001893,87.8878,23.1904,118.9756,241.1562,0,U,61600,999,8308,.2087E-2,.752E-5,0
ONEWEB-0693,2024-188H,2026-06-06T08:04:29.969472,13.17649651,.00013896,87.9129,8.0549,66.5698,293.5579,0,U,61601,999,8445,.61298914E-4,.37E-6,0
ONEWEB-0695,2024-188J,2026-06-06T14:05:35.466720,13.11417569,.0001767,87.8896,23.1874,101.5584,258.5742,0,U,61602,999,8307,-.11719E-2,-.403E-5,0
ONEWEB-0697,2024-188K,2026-06-06T14:52:00.035904,13.11415875,.0001279,87.8899,23.1705,109.2406,250.8861,0,U,61603,999,8306,.1185E-2,.433E-5,0
ONEWEB-0698,2024-188L,2026-06-06T14:20:14.542656,13.11419272,.0000574,87.8896,23.1892,80.4265,279.6927,0,U,61604,999,8308,.33519E-4,.25E-6,0
ONEWEB-0699,2024-188M,2026-06-06T14:26:36.986208,13.10369632,.0001288,87.8838,38.3738,97.3870,262.7403,0,U,61605,999,8192,-.20508E-3,-.59E-6,0
ONEWEB-0700,2024-188N,2026-06-06T14:29:00.165696,13.10370086,.0001634,87.8862,38.2807,103.4468,256.6842,0,U,61606,999,8191,-.47902E-3,-.155E-5,0
ONEWEB-0701,2024-188P,2026-06-06T14:52:53.488128,13.10372395,.000124,87.8844,38.3692,105.1207,255.0057,0,U,61607,999,8192,-.17718E-2,-.606E-5,0
ONEWEB-0702,2024-188Q,2026-06-06T13:36:18.362880,13.11416452,.0001567,87.8915,23.0987,119.1016,241.0269,0,U,61608,999,8309,-.94635E-3,-.323E-5,0
ONEWEB-0704,2024-188R,2026-06-06T14:36:10.297728,13.10370580,.0001755,87.8855,38.3600,117.3317,242.7989,0,U,61609,999,8190,-.10709E-2,-.361E-5,0
ONEWEB-0705,2024-188S,2026-06-06T14:43:19.831008,13.10374883,.0002512,87.8848,38.3655,109.2723,250.8676,0,U,61610,999,7407,.84634E-3,.308E-5,0
ONEWEB-0706,2024-188T,2026-06-06T14:21:50.482080,13.10369781,.0001811,87.8841,38.3736,100.1664,259.9667,0,U,61611,999,8199,.79776E-4,.41E-6,0
ONEWEB-0707,2024-188U,2026-06-06T14:31:23.479104,13.10369861,.0001704,87.8851,38.3655,99.7089,260.4231,0,U,61612,999,8193,-.59722E-3,-.196E-5,0
ONEWEB-0708,2024-188V,2026-06-06T14:57:40.439808,13.10373335,.0002287,87.8849,38.3812,88.6627,271.4762,0,U,61613,999,8191,-.18536E-2,-.634E-5,0
